NORAD_CAT_ID,OBJECT_NAME,OBJECT_TYPE,EPOCH,MEAN_MOTION,ECCENTRICITY,INCLINATION,RA_OF_ASC_NODE,ARG_OF_PERICENTER,MEAN_ANOMALY,BSTAR,MEAN_MOTION_DOT,MEAN_MOTION_DDOT,TLE_LINE0,TLE_LINE1,TLE_LINE2,SEMIMAJOR_AXIS,PERIOD,APOGEE,PERIGEE,DECAYED
53987.0,STARLINK-5112,PAYLOAD,2024-05-03 22:15:42,15.08825773,0.0001077,53.2161,3.4387,92.356,267.7556,-9.1527e-05,-1.744e-05,0.0,0 STARLINK-5112,1 53987U 22125Z   24124.92757520 -.00001744  00000-0 -91527-4 0  9990,2 53987  53.2161   3.4387 0001077  92.3560 267.7556 15.08825773 87590,6917.924,95.438,540.534,539.044,0.0
53987.0,STARLINK-5112,PAYLOAD,2024-05-04 09:23:24,15.08835801,0.0001093,53.2181,1.3572,94.3706,265.7411,-5.9236e-05,-1.23e-05,0.0,0 STARLINK-5112,1 53987U 22125Z   24125.39125041 -.00001230  00000-0 -59236-4 0  9990,2 53987  53.2181   1.3572 0001093  94.3706 265.7411 15.08835801 87734,6917.893,95.438,540.514,539.002,0.0
53987.0,STARLINK-5112,PAYLOAD,2024-05-04 22:06:28,15.08841249,0.0001116,53.218,358.9772,98.3964,261.7155,3.0159e-05,1.92e-06,0.0,0 STARLINK-5112,1 53987U 22125Z   24125.92116638  .00000192  00000-0  30159-4 0  9998,2 53987  53.2180 358.9772 0001116  98.3964 261.7155 15.08841249 87815,6917.877,95.437,540.514,538.97,0.0
53987.0,STARLINK-5112,PAYLOAD,2024-05-05 10:49:33,15.08845502,0.0001047,53.2178,356.5992,100.3827,259.7284,7.8659e-05,9.64e-06,0.0,0 STARLINK-5112,1 53987U 22125Z   24126.45108183  .00000964  00000-0  78659-4 0  9997,2 53987  53.2178 356.5992 0001047 100.3827 259.7284 15.08845502 87822,6917.864,95.437,540.453,539.004,0.0
53987.0,STARLINK-5112,PAYLOAD,2024-05-05 21:57:15,15.08838871,0.0001084,53.2181,354.5182,99.0346,261.0769,0.00022009,3.217e-05,0.0,0 STARLINK-5112,1 53987U 22125Z   24126.91476361  .00003217  00000-0  22009-3 0  9995,2 53987  53.2181 354.5182 0001084  99.0346 261.0769 15.08838871 87898,6917.884,95.438,540.499,538.999,0.0
53987.0,STARLINK-5112,PAYLOAD,2024-05-06 20:12:39,15.08835354,0.000121,53.218,350.3557,86.7274,273.3856,-1.7832e-05,-5.72e-06,0.0,0 STARLINK-5112,1 53987U 22125Z   24127.84212396 -.00000572  00000-0 -17832-4 0  9996,2 53987  53.2180 350.3557 0001210  86.7274 273.3856 15.08835354 88102,6917.895,95.438,540.597,538.923,0.0
53987.0,STARLINK-5112,PAYLOAD,2024-05-06 21:48:03,15.08828227,0.0001337,53.2178,350.0568,96.7572,263.3573,-9.0262e-05,-1.724e-05,0.0,0 STARLINK-5112,1 53987U 22125Z   24127.90836956 -.00001724  00000-0 -90262-4 0  9995,2 53987  53.2178 350.0568 0001337  96.7572 263.3573 15.08828227 88049,6917.916,95.438,540.706,538.856,0.0
53987.0,STARLINK-5112,PAYLOAD,2024-05-07 07:20:21,15.08832823,0.0001342,53.2179,348.2737,93.5909,266.5237,-9.2667e-05,-1.762e-05,0.0,0 STARLINK-5112,1 53987U 22125Z   24128.30580870 -.00001762  00000-0 -92667-4 0  9994,2 53987  53.2179 348.2737 0001342  93.5909 266.5237 15.08832823 88108,6917.902,95.438,540.696,538.839,0.0
53987.0,STARLINK-5112,PAYLOAD,2024-05-07 20:03:27,15.08831673,0.0001365,53.2178,345.8946,92.956,267.1588,-9.112e-05,-1.737e-05,0.0,0 STARLINK-5112,1 53987U 22125Z   24128.83573066 -.00001737  00000-0 -91120-4 0  9996,2 53987  53.2178 345.8946 0001365  92.9560 267.1588 15.08831673 88189,6917.906,95.438,540.715,538.827,0.0
53987.0,STARLINK-5112,PAYLOAD,2024-05-08 19:54:14,15.08824478,0.0001658,53.2185,341.4344,92.4849,267.6333,0.00017526,2.501e-05,0.0,0 STARLINK-5112,1 53987U 22125Z   24129.82933073  .00002501  00000-0  17526-3 0  9999,2 53987  53.2185 341.4344 0001658  92.4849 267.6333 15.08824478 88404,6917.928,95.439,540.94,538.646,0.0
53987.0,STARLINK-5112,PAYLOAD,2024-05-08 21:29:37,15.08826336,0.0001645,53.2185,341.1369,91.5091,268.6089,0.00019134,2.757e-05,0.0,0 STARLINK-5112,1 53987U 22125Z   24129.89557037  .00002757  00000-0  19134-3 0  9998,2 53987  53.2185 341.1369 0001645  91.5091 268.6089 15.08826336 88340,6917.922,95.438,540.925,538.649,0.0
53987.0,STARLINK-5112,PAYLOAD,2024-05-09 07:01:56,15.08838576,0.0001643,53.2177,339.3521,84.6695,275.4484,0.0003223,4.845e-05,0.0,0 STARLINK-5112,1 53987U 22125Z   24130.29301046  .00004845  00000-0  32230-3 0  9993,2 53987  53.2177 339.3521 0001643  84.6695 275.4484 15.08838576 88479,6917.885,95.438,540.886,538.613,0.0
53987.0,STARLINK-5112,PAYLOAD,2024-05-09 21:20:24,15.08840702,0.0001629,53.2175,336.6766,81.9794,278.1383,0.00025424,3.761e-05,0.0,0 STARLINK-5112,1 53987U 22125Z   24130.88917379  .00003761  00000-0  25424-3 0  9993,2 53987  53.2175 336.6766 0001629  81.9794 278.1383 15.08840702 88496,6917.878,95.438,540.87,538.616,0.0
53987.0,STARLINK-5112,PAYLOAD,2024-05-10 06:52:43,15.08847895,0.0001659,53.2179,334.893,83.1811,276.937,0.00032156,4.834e-05,0.0,0 STARLINK-5112,1 53987U 22125Z   24131.28661125  .00004834  00000-0  32156-3 0  9995,2 53987  53.2179 334.8930 0001659  83.1811 276.9370 15.08847895 88559,6917.856,95.437,540.869,538.574,0.0
53987.0,STARLINK-5112,PAYLOAD,2024-05-10 19:35:48,15.08843847,0.0001523,53.2169,332.5147,88.1607,271.956,0.00016133,2.281e-05,0.0,0 STARLINK-5112,1 53987U 22125Z   24131.81653272  .00002281  00000-0  16133-3 0  9999,2 53987  53.2169 332.5147 0001523  88.1607 271.9560 15.08843847 88707,6917.869,95.437,540.787,538.68,0.0
53987.0,STARLINK-5112,PAYLOAD,2024-05-10 21:11:11,15.0884513,0.0001582,53.2174,332.2184,88.0179,272.0995,0.00017729,2.535e-05,0.0,0 STARLINK-5112,1 53987U 22125Z   24131.88277234  .00002535  00000-0  17729-3 0  9990,2 53987  53.2174 332.2184 0001582  88.0179 272.0995 15.08845130 88643,6917.865,95.437,540.824,538.635,0.0
53987.0,STARLINK-5112,PAYLOAD,2024-05-11 13:04:59,15.08890949,0.0001447,53.2176,329.2439,84.4054,275.7103,0.0007119,0.00011076,0.0,0 STARLINK-5112,1 53987U 22125Z   24132.54513793  .00011076  00000-0  71190-3 0  9999,2 53987  53.2176 329.2439 0001447  84.4054 275.7103 15.08890949 88814,6917.725,95.434,540.591,538.589,0.0
53987.0,STARLINK-5112,PAYLOAD,2024-05-11 19:26:33,15.08847952,0.0001375,53.2171,328.054,71.7523,288.3619,-6.736e-05,-1.36e-05,0.0,0 STARLINK-5112,1 53987U 22125Z   24132.81011138 -.00001360  00000-0 -67360-4 0  9997,2 53987  53.2171 328.0540 0001375  71.7523 288.3619 15.08847952 88851,6917.856,95.437,540.672,538.77,0.0
53987.0,STARLINK-5112,PAYLOAD,2024-05-12 06:34:17,15.08822221,0.0001199,53.2171,325.9702,78.7391,281.3736,-0.00044055,-7.289e-05,0.0,0 STARLINK-5112,1 53987U 22125Z   24133.27380929 -.00007289  00000-0 -44055-3 0  9996,2 53987  53.2171 325.9702 0001199  78.7391 281.3736 15.08822221 88924,6917.935,95.439,540.629,538.97,0.0
53987.0,STARLINK-5112,PAYLOAD,2024-05-12 19:17:23,15.08796291,0.0001093,53.217,323.5917,79.2783,280.8332,-0.00069941,-0.00011388,0.0,0 STARLINK-5112,1 53987U 22125Z   24133.80374828 -.00011388  00000-0 -69941-3 0  9992,2 53987  53.2170 323.5917 0001093  79.2783 280.8332 15.08796291 89002,6918.014,95.44,540.635,539.123,0.0
53987.0,STARLINK-5112,PAYLOAD,2024-05-13 12:46:39,15.08809404,9.74e-05,53.2183,320.3217,63.3412,296.768,3.5649e-05,2.79e-06,0.0,0 STARLINK-5112,1 53987U 22125Z   24134.53239633  .00000279  00000-0  35649-4 0  9991,2 53987  53.2183 320.3217 0000974  63.3412 296.7680 15.08809404 89119,6917.974,95.439,540.513,539.165,0.0
53987.0,STARLINK-5112,PAYLOAD,2024-05-13 19:08:11,15.08829241,0.0001878,53.2179,319.1329,86.7014,273.4193,0.00037634,5.705e-05,0.0,0 STARLINK-5112,1 53987U 22125Z   24134.79735186  .00005705  00000-0  37634-3 0  9997,2 53987  53.2179 319.1329 0001878  86.7014 273.4193 15.08829241 89151,6917.913,95.438,541.077,538.479,0.0
53987.0,STARLINK-5112,PAYLOAD,2024-05-13 22:18:57,15.08829043,0.0001368,53.2172,318.538,78.4694,281.6452,0.00035044,5.292e-05,0.0,0 STARLINK-5112,1 53987U 22125Z   24134.92983357  .00005292  00000-0  35044-3 0  9991,2 53987  53.2172 318.5380 0001368  78.4694 281.6452 15.08829043 89104,6917.914,95.438,540.725,538.833,0.0
53987.0,STARLINK-5112,PAYLOAD,2024-05-14 12:37:25,15.08828058,9.73e-05,53.2178,315.8597,75.8603,284.2497,0.00055197,8.505e-05,0.0,0 STARLINK-5112,1 53987U 22125Z   24135.52598762  .00008505  00000-0  55197-3 0  9991,2 53987  53.2178 315.8597 0000973  75.8603 284.2497 15.08828058 89194,6917.917,95.438,540.455,539.109,0.0
53987.0,STARLINK-5112,PAYLOAD,2024-05-14 18:58:57,15.08839401,0.0001024,53.2174,314.6709,78.1272,281.9835,0.00061608,9.53e-05,0.0,0 STARLINK-5112,1 53987U 22125Z   24135.79094326  .00009530  00000-0  61608-3 0  9990,2 53987  53.2174 314.6709 0001024  78.1272 281.9835 15.08839401 89305,6917.882,95.438,540.456,539.039,0.0
53987.0,STARLINK-5112,PAYLOAD,2024-05-15 04:31:16,15.08860361,0.0001317,53.2178,312.8842,71.9559,288.1577,0.00067469,0.00010472,0.0,0 STARLINK-5112,1 53987U 22125Z   24136.18838032  .00010472  00000-0  67469-3 0  9992,2 53987  53.2178 312.8842 0001317  71.9559 288.1577 15.08860361 89368,6917.818,95.436,540.594,538.772,0.0
53987.0,STARLINK-5112,PAYLOAD,2024-05-15 17:14:21,15.08841853,0.0001043,53.2175,310.5064,75.061,285.0497,-0.00013413,-2.422e-05,0.0,0 STARLINK-5112,1 53987U 22125Z   24136.71830402 -.00002422  00000-0 -13413-3 0  9992,2 53987  53.2175 310.5064 0001043  75.0610 285.0497 15.08841853 89446,6917.875,95.437,540.461,539.018,0.0
53987.0,STARLINK-5112,PAYLOAD,2024-05-15 22:00:30,15.08843792,0.0001217,53.217,309.6117,75.189,284.9237,-0.00011244,-2.077e-05,0.0,0 STARLINK-5112,1 53987U 22125Z   24136.91702231 -.00002077  00000-0 -11244-3 0  9998,2 53987  53.2170 309.6117 0001217  75.1890 284.9237 15.08843792 89403,6917.869,95.437,540.576,538.892,0.0
53987.0,STARLINK-5112,PAYLOAD,2024-05-16 04:22:02,15.08855302,0.0001063,53.2171,308.4256,75.4812,284.6298,2.5042e-05,1.11e-06,0.0,0 STARLINK-5112,1 53987U 22125Z   24137.18197510  .00000111  00000-0  25042-4 0  9993,2 53987  53.2171 308.4256 0001063  75.4812 284.6298 15.08855302 89517,6917.834,95.437,540.434,538.963,0.0
53987.0,STARLINK-5112,PAYLOAD,2024-05-17 04:12:48,15.08860085,8.6e-05,53.2165,303.9657,73.911,286.1977,-0.00010839,-2.013e-05,0.0,0 STARLINK-5112,1 53987U 22125Z   24138.17556261 -.00002013  00000-0 -10839-3 0  9997,2 53987  53.2165 303.9657 0000860  73.9110 286.1977 15.08860085 89596,6917.819,95.436,540.279,539.089,0.0
